TDRS 12
1 39504U 14004A   26119.24125795 -.00000272  00000+0  00000+0 0  9994
2 39504   3.9308  18.2697 0001663 243.9772   0.8806  1.00269010 43782
